{"fetched_at":"2026-04-04T20:29:50Z","count":2390,"tles":[{"name":"1998-067XJ","line1":"1 65730U 98067XJ  25336.82362581  .06330363  11931-4  22859-2 0  9996","line2":"2 65730  51.6061 180.4655 0010114 256.3912 103.5981 16.23931094 11687","category":"Other"},{"name":"SL-14 R/B","line1":"1 15945U 85069B   26093.78691560  .00000821  00000+0  89774-4 0  9993","line2":"2 15945  82.5304   1.3406 0020290 107.7626 252.5807 14.86462344176560","category":"Other"},{"name":"ZIYUAN 1-02C (ZY 1-02C)","line1":"1 38038U 11079A   26093.98399875  .00000667  00000+0  23398-3 0  9994","line2":"2 38038  98.4128 162.8286 0006843 159.8717 277.5970 14.38151500748541","category":"Other"},{"name":"METEOR PRIRODA","line1":"1 12585U 81065A   25323.79819012  .05427087  25897-5  43530-3 0  9990","line2":"2 12585  97.4523  29.5356 0007881 258.0011 102.0405 16.40029458427132","category":"Weather"},{"name":"CZ-2C R/B","line1":"1 28480U 04046B   26093.72809258  .00000296  00000+0  12423-3 0  9998","line2":"2 28480  98.1976   7.1519 0140631  80.9095 280.7969 14.27002341112079","category":"Other"},{"name":"ZY-1 02D","line1":"1 44528U 19059A   26093.97353832  .00000212  00000+0  88465-4 0  9996","line2":"2 44528  98.3258 158.0637 0001607  36.2807 323.8488 14.35460965343694","category":"Other"},{"name":"SOYUZ-MS 27","line1":"1 63520U 25072A   25342.54239145  .00012445  00000+0  23028-3 0  9994","line2":"2 63520  51.6307 163.2617 0003393 220.7658 139.3077 15.49420853 20209","category":"Other"},{"name":"SHENZHOU-20 (SZ-20)","line1":"1 63632U 25082A   26022.30237278  .00025665  00000+0  30041-3 0  9995","line2":"2 63632  41.4671 130.1396 0010483 335.9522  24.0826 15.60894095255307","category":"Other"},{"name":"ARIANE 40 R/B","line1":"1 21610U 91050F   26093.71254594  .00000527  00000+0  17009-3 0  9995","line2":"2 21610  98.1960 145.0035 0003200  23.1439 336.9896 14.42913314822604","category":"Other"},{"name":"UMKA 1 (RS40S)","line1":"1 57172U 23091G   26093.92087672  .00012552  00000+0  58430-3 0  9995","line2":"2 57172  97.5120 152.9229 0013358  25.8188 334.3710 15.19990549152720","category":"Other"},{"name":"COSMOS 2221","line1":"1 22236U 92080A   26093.91629496  .00004247  00000+0  37253-3 0  9999","line2":"2 22236  82.5013 254.9086 0015693 106.6565 253.6382 14.96318709784560","category":"Other"},{"name":"SL-16 R/B","line1":"1 26070U 00006B   26093.95238816  .00000131  00000+0  90926-4 0  9997","line2":"2 26070  71.0038  44.7147 0015259 150.1819 210.0177 14.15831016352132","category":"Other"},{"name":"VIZARD-METEO (RS38S)","line1":"1 57189U 23091Z   26093.89002530  .00030347  00000+0  92925-3 0  9998","line2":"2 57189  97.5145 162.0011 0006606 345.7450  14.3605 15.33744677153296","category":"Other"},{"name":"RSP-03","line1":"1 65732U 98067XL  26047.15751462  .08209638  12383-4  92064-3 0  9994","line2":"2 65732  51.6063 155.3995 0006813 323.5269  36.5291 16.36188855 23531","category":"Other"},{"name":"TEVEL2-5","line1":"1 63214U 25052E   26093.66703342  .00033380  00000+0  10824-2 0  9994","line2":"2 63214  97.3986 350.0171 0003667  48.6473 311.5083 15.31906119 58696","category":"Other"},{"name":"JILIN-1 GAOFEN 03D15","line1":"1 51839U 22019R   26093.94611762  .00245612  00000+0  15299-2 0  9993","line2":"2 51839  97.3673 186.5987 0001375 150.8696 209.2646 15.76231063228339","category":"Other"},{"name":"IDEFIX & ARIANE 42P R/B","line1":"1 27422U 02021B   26093.80673504  .00000491  00000+0  20272-3 0  9994","line2":"2 27422  98.5899  32.1172 0012849 111.1865 249.0692 14.31044630247618","category":"Other"},{"name":"CZ-2C R/B","line1":"1 43521U 18054D   26059.19164949  .05758169  14813-5  64760-3 0  9997","line2":"2 43521  35.1189   3.8055 0006750 238.6763 121.3328 16.35845045427383","category":"Other"},{"name":"SUPERVIEW NEO-1 02","line1":"1 52322U 22043C   26093.92694492  .00010385  00000+0  54662-3 0  9992","line2":"2 52322  97.3437 169.1324 0001408 168.7873 191.3392 15.15809622218321","category":"Other"},{"name":"GHS-01","line1":"1 65733U 98067XM  26020.92375749  .09795873  12158-4  14287-2 0  9993","line2":"2 65733  51.6117 289.2885 0004779 208.5099 151.5664 16.33783644 19417","category":"Other"},{"name":"ZHUHAI-1 OVS-02","line1":"1 43440U 18040B   26093.99654356  .00012563  00000+0  51965-3 0  9990","line2":"2 43440  97.0456 115.6542 0004945 139.5618 220.5989 15.24077271441412","category":"Other"},{"name":"SL-16 R/B","line1":"1 25400U 98043G   26093.85002027  .00000117  00000+0  68031-4 0  9999","line2":"2 25400  98.8297  47.3985 0008971 305.6096  54.4247 14.26056012442571","category":"Other"},{"name":"NPSAT1","line1":"1 44340U 19036B   26093.38973776  .00011782  00000+0  17211-2 0  9996","line2":"2 44340  24.0000 344.6379 0007772  87.3054 272.8331 14.73865914361441","category":"Other"},{"name":"SL-3 R/B","line1":"1 13819U 83010B   26093.73159984  .00023200  00000+0  45266-3 0  9992","line2":"2 13819  81.1033 331.5289 0015480 323.9367  36.0832 15.47228926361819","category":"Other"},{"name":"ICEYE-X7","line1":"1 46496U 20068L   26093.94445537  .00024225  00000+0  83712-3 0  9994","line2":"2 46496  97.7450  57.2245 0006485 216.9280 143.1514 15.29905767303432","category":"Other"},{"name":"TITAN 4B R/B","line1":"1 26474U 00047B   26093.93883594  .00006612  00000+0  40836-3 0  9991","line2":"2 26474  67.9903 329.5012 0040275   5.8094 354.3513 15.09804761396727","category":"Other"},{"name":"SPHINX/FRAZIER","line1":"1 63232U 25052Y   26093.65309052  .00013414  00000+0  57144-3 0  9996","line2":"2 63232  97.4037 347.7045 0007460  60.6130 299.5851 15.23062190 58529","category":"Other"},{"name":"STARLINK-1114","line1":"1 44927U 20001P   26093.91668981  .00133056  00000+0  19256-2 0  9999","line2":"2 44927  53.0468 207.8589 0004482 240.2950 132.3176 15.54968603  5862","category":"Starlink"},{"name":"CUBEBEL 2 (EU11S)","line1":"1 57175U 23091K   26093.93479211  .00025483  00000+0  94814-3 0  9996","line2":"2 57175  97.5117 156.5629 0010346  26.5429 333.6338 15.27436760152966","category":"Other"},{"name":"GAOFEN-8","line1":"1 40701U 15030A   26093.97631959  .00018572  00000+0  41654-3 0  9995","line2":"2 40701  97.6935 283.0297 0010321 101.9556 258.2849 15.43407450599990","category":"Other"},{"name":"COSMOS 1812","line1":"1 17295U 87003A   26065.13056457  .12040831 -12829-5  14059-3 0  9991","line2":"2 17295  82.4628 199.5909 0011771 272.0058  87.9898 16.49575463143916","category":"Other"},{"name":"ASTRO-H (HITOMI)","line1":"1 41337U 16012A   26093.61956448  .00004921  00000+0  28817-3 0  9995","line2":"2 41337  30.9990 195.6484 0009679 222.5414 137.4474 15.10171847556009","category":"Other"},{"name":"SL-14 R/B","line1":"1 20466U 90010B   26093.91175734  .00000852  00000+0  10026-3 0  9991","line2":"2 20466  82.5006 243.6908 0018984 213.2555 146.7469 14.83595821932227","category":"Other"},{"name":"SL-4 R/B","line1":"1 39679U 14021B   26093.74841385  .00025560  00000+0  54336-3 0  9993","line2":"2 39679  51.6063 214.9494 0094520 194.4221 165.4063 15.40122549660137","category":"Other"},{"name":"SL-16 R/B","line1":"1 25407U 98045B   26093.50659289  .00000044  00000+0  46437-4 0  9993","line2":"2 25407  71.0091 129.3870 0008204 331.4959  28.5714 14.16193398430612","category":"Other"},{"name":"THOR AGENA D R/B","line1":"1 00733U 64002A   26093.91961123  .00000325  00000+0  13294-3 0  9998","line2":"2 00733  99.1209 108.6315 0032877 183.3063 176.7908 14.34034411241910","category":"Other"},{"name":"SATMAR","line1":"1 64551U 25135Z   26093.87762560  .00016763  00000+0  69689-3 0  9991","line2":"2 64551  97.4525 209.9902 0002254 126.6699 233.4746 15.23861301 43600","category":"Other"},{"name":"SHERPA-AC1","line1":"1 52763U 22057AH  26093.91715219  .00014893  00000+0  43789-3 0  9992","line2":"2 52763  97.6574 240.1564 0007618   6.9601 353.1746 15.35180100214302","category":"Other"},{"name":"TEVEL2-3","line1":"1 63218U 25052J   26093.61445256  .00031861  00000+0  10480-2 0  9990","line2":"2 63218  97.3965 349.6708 0004233  56.9477 303.2170 15.31452711 58670","category":"Other"},{"name":"SL-8 R/B","line1":"1 08459U 75112B   26093.82252469  .00000374  00000+0  13157-3 0  9993","line2":"2 08459  74.0622 332.6827 0014689  55.7398 304.5145 14.38218996635484","category":"Other"},{"name":"COSMOS 2508 (RODNIK-S *)","line1":"1 40921U 15050B   26093.89000043  .00000185  00000+0  12649-2 0  9998","line2":"2 40921  82.4839 124.4680 0014206 180.1017 180.0062 12.42912158477615","category":"Other"},{"name":"EROS B","line1":"1 29079U 06014A   26036.62389918  .16492175  25042-5  34625-3 0  9997","line2":"2 29079  97.3179 162.1754 0012048 287.7254  72.2733 16.46015569 99499","category":"Other"},{"name":"CZ-4B R/B","line1":"1 28415U 04035C   26093.64262337  .00014127  00000+0  48915-3 0  9999","line2":"2 28415  97.3450 127.5878 0030266 238.1218 121.7077 15.29524075183726","category":"Other"},{"name":"COSMOS 1975","line1":"1 19573U 88093A   26093.47509299  .00011377  00000+0  40879-3 0  9997","line2":"2 19573  82.5158  92.7910 0013402  85.5341 274.7429 15.28430614 23194","category":"Other"},{"name":"SL-8 R/B","line1":"1 21938U 92020B   26093.65362810  .00000029  00000+0  14377-4 0  9993","line2":"2 21938  82.9292 135.2250 0028011 225.9685 253.8677 13.75550673704566","category":"Other"},{"name":"STARLINK-11139 [DTC]","line1":"1 60402U 24141E   26093.87939472 -.00007660  00000+0 -58502-4 0  9997","line2":"2 60402  53.1579 321.7660 0001156  90.7950 269.3200 15.69677916 95702","category":"Starlink"},{"name":"SL-3 R/B","line1":"1 13403U 82079B   26093.92887421  .00010243  00000+0  40382-3 0  9997","line2":"2 13403  81.1475 163.2743 0025431  82.0522 278.3596 15.25147914381549","category":"Other"},{"name":"COSMOS 1953","line1":"1 19210U 88050A   26093.56443501  .00011967  00000+0  42380-3 0  9995","line2":"2 19210  82.5063 133.2213 0011930  44.8608 315.3594 15.28927400 41584","category":"Other"}]}